ONEWEB-0665             
1 55825U 23029AF  24222.85185514  .00000190  00000+0  47784-3 0  9992
2 55825  87.8926  64.2511 0001542  74.5575 285.5725 13.14501701 70555
ONEWEB-0666             
1 55826U 23029AG  24222.90428456  .00000015  00000+0  43744-5 0  9994
2 55826  87.9189  49.0062 0002170  93.5550 266.5831 13.20771262 71884
ONEWEB-0667             
1 55827U 23029AH  24222.89796493 -.00000022  00000+0 -85546-4 0  9997
2 55827  87.9188  48.9408 0001716  78.5326 281.6000 13.20772404 71879
ONEWEB-0669             
1 55828U 23029AJ  24222.89324251 -.00000101  00000+0 -28121-3 0  9990
2 55828  87.9187  48.9789 0002519  82.8589 277.2831 13.20771266 71870
ONEWEB-0670             
1 55829U 23029AK  24222.82966847 -.00000054  00000+0 -18111-3 0  9992
2 55829  87.8927  64.2631 0001790  68.4783 291.6538 13.14503922 70570
ONEWEB-0671             
1 55830U 23029AL  24222.85352658  .00000066  00000+0  13323-3 0  9997
2 55830  87.9106  79.5424 0001704  73.0999 287.0320 13.19725576 69692
ONEWEB-0672             
1 55831U 23029AM  24222.88851482 -.00000028  00000+0 -10063-3 0  9998
2 55831  87.9189  48.9640 0002053  94.3304 265.8064 13.20772119 71877
ONEWEB-0673             
1 55832U 23029AN  24222.82982811  .00000057  00000+0  10944-3 0  9992
2 55832  87.9108  79.5138 0001664  74.3138 285.8178 13.19724023 69695
